satname,norad_id,inclination_deg,eccentricity,mean_motion_rev_per_day,perigee_km,apogee_km,l1,l2
STARLINK-1297,45395,53.0537,0.0001386,15.45537268,428.8562937446186,430.74345384603566,1 45395U 20019AM  26025.91668981  .00261198  00000+0  51832-2 0  9998,2 45395  53.0537 335.9056 0001386 107.1547 142.3405 15.45537268  5588
STARLINK-1307,45397,53.0567,0.0001464,15.45205782,429.77666507244885,431.7703140637941,1 45397U 20019AP  26025.91668981  .00064244  00000+0  13295-2 0  9994,2 45397  53.0567 335.3571 0001464 106.3035 105.0703 15.45205782  5635
STARLINK-1255,45399,53.0471,0.0006347,15.43391971,431.78204822002954,440.4320496157252,1 45399U 20019AR  26025.10099471  .00043427  00000+0  96063-3 0  9994,2 45399  53.0471 311.2086 0006347  83.7294 276.4434 15.43391971323681
STARLINK-1260,45404,53.148,0.0001897,15.2739631,482.29751375089836,484.90085645952604,1 45404U 20019AW  26025.91668981  .00949385  00000+0  32281-1 0  9996,2 45404  53.1480 327.8469 0001897  97.3839 300.9726 15.27396310  5833
STARLINK-1263,45405,53.1453,0.0001631,15.26838555,484.1507257855901,486.3895691971011,1 45405U 20019AX  26025.91668981  .00894007  00000+0  31060-1 0  9991,2 45405  53.1453 327.8595 0001631  94.4767  17.6892 15.26838555  5789
STARLINK-1265,45406,53.1426,0.0001887,15.2633839,485.47403521533215,488.06485090694423,1 45406U 20019AY  26025.91668981  .00966465  00000+0  33877-1 0  9998,2 45406  53.1426 327.9255 0001887  99.6145 296.1699 15.26338390  5842
STARLINK-1278,45408,53.0504,0.0005826,15.46680632,422.47999065925524,430.40868883632993,1 45408U 20019BA  26025.16780032  .00142506  00000+0  27640-2 0  9993,2 45408  53.0504 339.6769 0005826  33.8571 326.2807 15.46680632323200
STARLINK-1296,45412,53.128,0.000196,15.23185126,494.8931836318452,497.587939636006,1 45412U 20019BE  26025.91668981  .00775983  00000+0  30013-1 0  9997,2 45412  53.1280 327.7511 0001960  84.4964  27.9259 15.23185126  5838
STARLINK-1298,45413,53.042,0.0008313,15.7582628,336.69424972348406,347.8676165791412,1 45413U 20019BF  26025.91668981  .00154952  00000+0  96951-3 0  9990,2 45413  53.0420 270.2771 0008313 139.6955 109.1577 15.75826280  5809
STARLINK-1309,45414,53.0711,0.0001208,15.23692217,493.88502249448356,495.5455036012363,1 45414U 20019BG  26025.91668981  .01045405  00000+0  39912-1 0  9996,2 45414  53.0711 327.9421 0001208  97.8523 172.7984 15.23692217  5832
STARLINK-1316,45415,53.1425,0.0001595,15.26343955,485.6578069856114,487.84770681806367,1 45415U 20019BH  26025.91668981  .00957392  00000+0  33579-1 0  9996,2 45415  53.1425 327.9255 0001595 100.0613  55.6879 15.26343955  5845
STARLINK-1318,45416,53.0402,0.0004777,15.8294868,318.90628496862973,325.30769807813067,1 45416U 20019BJ  26025.91668981  .00281642  00000+0  12565-2 0  9998,2 45416  53.0402 257.4131 0004777 172.4662 162.9488 15.82948680  6030
STARLINK-1286,45417,53.0522,0.0002797,15.47588357,421.8808023014626,425.6857965169529,1 45417U 20019BK  26025.83495177  .00070893  00000+0  13496-2 0  9993,2 45417  53.0522 336.1189 0002797  49.7633 310.3618 15.47588357323584
STARLINK-1308,45419,53.0772,0.0001729,15.36763426,454.5060760772458,456.86921263926524,1 45419U 20019BM  26025.91668981  .01157375  00000+0  28892-1 0  9996,2 45419  53.0772 355.8755 0001729  97.1511 179.9441 15.36763426  5834
STARLINK-1329,45531,53.0545,0.0013521,15.47033776,416.20969729696117,434.6078457723461,1 45531U 20025A   26025.74506351  .00052297  00000+0  10163-2 0  9990,2 45531  53.0545 287.9337 0013521 102.8354 257.4164 15.47033776318785
STARLINK-1338,45532,53.0515,0.0005078,15.45890387,425.30655810025564,432.2196458438184,1 45532U 20025B   26025.70626240  .00109887  00000+0  22015-2 0  9994,2 45532  53.0515 291.1053 0005078 114.8434 245.3101 15.45890387318734
STARLINK-1350,45535,53.0723,0.0001895,15.3491452,459.87835602913674,462.4704550518363,1 45535U 20025E   26025.83254645  .00017179  00000+0  51003-3 0  9999,2 45535  53.0723 234.2337 0001895 117.0209 243.0986 15.34914520319572
STARLINK-1362,45538,53.0526,0.0001486,15.06375615,546.2571775576725,548.3154133610833,1 45538U 20025H   26025.07719408  .00003558  00000+0  25781-3 0  9991,2 45538  53.0526 302.1203 0001486 102.8041 257.3115 15.06375615318526
STARLINK-1368,45540,53.0658,0.0002027,15.0979749,535.4166104630349,538.2199333302615,1 45540U 20025K   26025.91668981  .00048889  00000+0  29890-2 0  9996,2 45540  53.0658 298.6054 0002027  89.0207 136.5435 15.09797490  5786
STARLINK-1371,45542,53.0532,0.0003883,15.40802842,441.08964236523025,446.38751093805877,1 45542U 20025M   26025.76456031  .00092520  00000+0  22068-2 0  9993,2 45542  53.0532 293.5042 0003883 113.0986 247.0427 15.40802842318704
STARLINK-1372,45543,53.0531,0.000149,15.0642315,546.1087410676064,548.1724737946206,1 45543U 20025N   26025.08922833  .00005501  00000+0  38767-3 0  9994,2 45543  53.0531 302.3486 0001490  83.9961 276.1198 15.06423150317615
STARLINK-1373,45544,53.049,0.0004219,15.42238864,436.62686326430776,442.37958808673375,1 45544U 20025P   26025.72379063  .00059182  00000+0  13550-2 0  9993,2 45544  53.0490 294.0731 0004219 116.6220 243.5217 15.42238864318699
STARLINK-1294,45551,53.036,0.0004786,15.8103732,324.2966575678829,330.71529902670954,1 45551U 20025W   26025.91668981  .00371662  00000+0  17923-2 0  9990,2 45551  53.0360 193.1567 0004786 278.0487 280.9041 15.81037320  6035
STARLINK-1325,45554,53.0362,0.0004729,16.06822066,252.43848296731358,258.7126483118964,1 45554U 20025Z   26025.71724728  .00936056  48423-3  11931-2 0  9995,2 45554  53.0362 180.4161 0004729 253.8263 106.2249 16.06822066320293
STARLINK-1327,45555,53.0518,0.0003572,15.44732134,429.73261713518605,434.5978970676588,1 45555U 20025AA  26024.72834508  .00079154  00000+0  16591-2 0  9993,2 45555  53.0518 277.4206 0003572 122.0551 238.0802 15.44732134318839
STARLINK-1356,45564,53.0547,0.0001377,15.38267745,450.29117662338194,452.1719847305003,1 45564U 20025AK  26025.91668981  .00136896  00000+0  35233-2 0  9996,2 45564  53.0547 276.6184 0001377  78.4523  76.8181 15.38267745  5780
STARLINK-1357,45565,53.0518,0.0007306,15.46143672,423.04711183875406,432.99226799406097,1 45565U 20025AL  26025.86367431  .00092389  00000+0  18396-2 0  9996,2 45565  53.0518 243.7936 0007306 117.7822 242.3926 15.46143672319412
STARLINK-1361,45567,53.0552,0.0001072,15.33712318,464.0143824421948,465.4814969732679,1 45567U 20025AN  26025.91668981  .01617785  00000+0  44442-1 0  9992,2 45567  53.0552 277.0760 0001072  87.4663  96.2476 15.33712318  5836
STARLINK-1363,45568,53.0478,8.98e-05,15.6401634,375.4627061234396,376.6757615630386,1 45568U 20025AP  26025.62826316  .00093660  00000+0  96786-3 0  9998,2 45568  53.0478 250.9472 0000898  43.3999 316.7085 15.64016340319281
STARLINK-1366,45569,53.0475,9.11e-05,15.63503993,376.9292414052061,378.16012660803153,1 45569U 20025AQ  26024.35259116  .00064911  00000+0  68859-3 0  9993,2 45569  53.0475 257.8227 0000911  91.0673 269.0445 15.63503993319079
STARLINK-1376,45570,53.1598,0.0002128,15.29366059,476.2472748914097,479.1651217566159,1 45570U 20025AR  26025.71860087  .00002196  00000+0  88415-4 0  9999,2 45570  53.1598 277.1436 0002128  87.9464 272.1780 15.29366059318921
STARLINK-1320,45572,53.0525,0.000596,15.58857529,386.9280154738417,394.9967819571111,1 45572U 20025AT  26025.91668981  .00215435  00000+0  26657-2 0  9992,2 45572  53.0525 195.3761 0005960 203.3204  60.3662 15.58857529  5970
STARLINK-1321,45573,53.0485,0.0003373,15.41136943,440.45191815571434,445.0532902827208,1 45573U 20025AU  26024.69237157  .00068568  00000+0  16251-2 0  9996,2 45573  53.0485 267.8637 0003373 112.5421 247.5941 15.41136943318665
STARLINK-1331,45578,53.0542,0.0001282,15.22095866,498.6381364860945,500.401567702972,1 45578U 20025AZ  26025.91668981  .01951427  00000+0  76031-1 0  9997,2 45578  53.0542 267.9759 0001282  66.4628 230.0531 15.22095866  5777
STARLINK-1333,45580,53.1534,0.0001127,15.29378084,476.8976119623894,478.4429109191178,1 45580U 20025BB  26025.71601668  .00002128  00000+0  85999-4 0  9997,2 45580  53.1534 277.4087 0001127  91.3093 268.8037 15.29378084318920
STARLINK-1335,45581,53.053,0.0002201,15.06389951,545.7180808507283,548.7666328436108,1 45581U 20025BC  26025.67068772  .00009084  00000+0  62814-3 0  9994,2 45581  53.0530 269.7359 0002201  80.9486 279.1752 15.06389951319027
STARLINK-1337,45582,53.0574,0.0001399,15.28874219,478.2171346617579,480.13581097145106,1 45582U 20025BD  26025.91668981  .01052043  00000+0  33902-1 0  9998,2 45582  53.0574 267.4030 0001399  92.0256 318.9541 15.28874219  5832
STARLINK-1347,45586,53.0501,0.000546,15.44651838,428.6827155248402,436.11982331504623,1 45586U 20025BH  26025.85963193  .00029816  00000+0  63610-3 0  9990,2 45586  53.0501 234.9223 0005460 127.1268 233.0237 15.44651838319526
STARLINK-1364,45589,53.0616,0.0001222,15.34649263,461.12661816468153,462.7983384771833,1 45589U 20025BL  26025.91668981  .01049583  00000+0  28276-1 0  9998,2 45589  53.0616 266.9969 0001222  84.7611 154.3299 15.34649263  5736
STARLINK-1365,45590,53.0656,0.0001477,15.37696214,451.91475488747164,453.93265021900606,1 45590U 20025BM  26025.91668981  .01056049  00000+0  25799-1 0  9992,2 45590  53.0656 296.6147 0001477  84.9854 262.0247 15.37696214  5699
STARLINK-1443,45660,53.053,0.0001711,15.06384279,546.0748055756976,548.444676340454,1 45660U 20035D   26025.36568080  .00000159  00000+0  29606-4 0  9993,2 45660  53.0530 261.1073 0001711  94.2807 265.8377 15.06384279312200
STARLINK-1446,45663,53.0234,0.000491,15.40883358,440.15150739298133,446.8503558418297,1 45663U 20035G   26025.77219954  .00028682  00000+0  69463-3 0  9999,2 45663  53.0234 202.9377 0004910 131.3804 228.7623 15.40883358313054
STARLINK-1448,45665,53.0544,0.0001159,15.33549309,464.4396953083897,466.02598843773467,1 45665U 20035J   26025.91668981  .01699393  00000+0  46693-1 0  9997,2 45665  53.0544 257.1083 0001159  95.1924  60.4100 15.33549309  5739
